COMMENT,ORIGINATOR,NORAD_CAT_ID,OBJECT_NAME,OBJECT_TYPE,CLASSIFICATION_TYPE,INTLDES,EPOCH,EPOCH_MICROSECONDS,MEAN_MOTION,ECCENTRICITY,INCLINATION,RA_OF_ASC_NODE,ARG_OF_PERICENTER,MEAN_ANOMALY,EPHEMERIS_TYPE,ELEMENT_SET_NO,REV_AT_EPOCH,BSTAR,MEAN_MOTION_DOT,MEAN_MOTION_DDOT,FILE,TLE_LINE0,TLE_LINE1,TLE_LINE2,OBJECT_ID,OBJECT_NUMBER,SEMIMAJOR_AXIS,PERIOD,APOGEE,PERIGEE,DECAYED
"GENERATED VIA SPACETRACK.ORG API","18 SPCS","55099","SPACEBEE-156","PAYLOAD","U","23001CU","2024-02-29 10:12:30","416256","15.35208268","0.0011338","97.4364","125.1606","173.3375","186.8021","0","999","6434","0.00098254","0.00033676","0","4201938","0 SPACEBEE-156","1 55099U 23001CU  24060.42535204  .00033676  00000-0  98254-3 0  9997","2 55099  97.4364 125.1606 0011338 173.3375 186.8021 15.35208268 64342","2023-001CU","55099","6838.439","93.798","468.057","452.551","0"
"GENERATED VIA SPACETRACK.ORG API","18 SPCS","55099","SPACEBEE-156","PAYLOAD","U","23001CU","2024-02-29 16:27:56","496384","15.35224797","0.0011409","97.4363","125.4238","172.3893","187.7526","0","999","6438","0.0009069","0.00031084","0","4202276","0 SPACEBEE-156","1 55099U 23001CU  24060.68607056  .00031084  00000-0  90690-3 0  9997","2 55099  97.4363 125.4238 0011409 172.3893 187.7526 15.35224797 64387","2023-001CU","55099","6838.390","93.797","468.057","452.453","0"
"GENERATED VIA SPACETRACK.ORG API","18 SPCS","55099","SPACEBEE-156","PAYLOAD","U","23001CU","2024-03-01 03:24:56","497248","15.35259482","0.00113","97.4361","125.8842","171.0886","189.056","0","999","6445","0.0010762","0.00036969","0","4202525","0 SPACEBEE-156","1 55099U 23001CU  24061.14232057  .00036969  00000-0  10762-2 0  9992","2 55099  97.4361 125.8842 0011300 171.0886 189.0560 15.35259482 64458","2023-001CU","55099","6838.287","93.795","467.879","452.425","0"
"GENERATED VIA SPACETRACK.ORG API","18 SPCS","55099","SPACEBEE-156","PAYLOAD","U","23001CU","2024-03-01 14:21:55","620288","15.35296252","0.0011419","97.4362","126.3448","169.5867","190.5615","0","999","6452","0.0011987","0.00041259","0","4202819","0 SPACEBEE-156","1 55099U 23001CU  24061.59856042  .00041259  00000-0  11987-2 0  9995","2 55099  97.4362 126.3448 0011419 169.5867 190.5615 15.35296252 64521","2023-001CU","55099","6838.178","93.793","467.851","452.234","0"
"GENERATED VIA SPACETRACK.ORG API","18 SPCS","55099","SPACEBEE-156","PAYLOAD","U","23001CU","2024-03-02 02:52:44","897376","15.35336314","0.001145","97.4358","126.8705","167.7158","192.4367","0","999","6460","0.0011504","0.00039636","0","4204354","0 SPACEBEE-156","1 55099U 23001CU  24062.11996409  .00039636  00000-0  11504-2 0  9997","2 55099  97.4358 126.8705 0011450 167.7158 192.4367 15.35336314 64603","2023-001CU","55099","6838.059","93.791","467.753","452.094","0"
"GENERATED VIA SPACETRACK.ORG API","18 SPCS","55099","SPACEBEE-156","PAYLOAD","U","23001CU","2024-03-02 16:57:23","797152","15.35384194","0.0011508","97.4357","127.4622","165.5108","194.6467","0","999","6469","0.0011061","0.00038159","0","4204894","0 SPACEBEE-156","1 55099U 23001CU  24062.70652543  .00038159  00000-0  11061-2 0  9997","2 55099  97.4357 127.4622 0011508 165.5108 194.6467 15.35384194 64695","2023-001CU","55099","6837.917","93.788","467.651","451.912","0"
"GENERATED VIA SPACETRACK.ORG API","18 SPCS","55099","SPACEBEE-156","PAYLOAD","U","23001CU","2024-03-02 16:57:23","797152","15.35384194","0.0011508","97.4357","127.4622","165.5108","194.6467","0","999","6469","0.0011061","0.00038159","0","4204905","0 SPACEBEE-156","1 55099U 23001CU  24062.70652543  .00038159  00000-0  11061-2 0  9997","2 55099  97.4357 127.4622 0011508 165.5108 194.6467 15.35384194 64695","2023-001CU","55099","6837.917","93.788","467.651","451.912","0"
"GENERATED VIA SPACETRACK.ORG API","18 SPCS","55099","SPACEBEE-156","PAYLOAD","U","23001CU","2024-03-03 10:09:42","487488","15.3544631","0.0011586","97.4355","128.186","163.2489","196.914","0","999","6480","0.0012375","0.00042813","0","4206173","0 SPACEBEE-156","1 55099U 23001CU  24063.42340842  .00042813  00000-0  12375-2 0  9994","2 55099  97.4355 128.1860 0011586 163.2489 196.9140 15.35446310 64803","2023-001CU","55099","6837.732","93.784","467.519","451.675","0"
"GENERATED VIA SPACETRACK.ORG API","18 SPCS","55099","SPACEBEE-156","PAYLOAD","U","23001CU","2024-03-03 16:25:05","94336","15.35464673","0.0011638","97.4354","128.4488","162.3433","197.8217","0","999","6484","0.0011107","0.00038419","0","4206364","0 SPACEBEE-156","1 55099U 23001CU  24063.68408674  .00038419  00000-0  11107-2 0  9999","2 55099  97.4354 128.4488 0011638 162.3433 197.8217 15.35464673 64849","2023-001CU","55099","6837.678","93.783","467.500","451.585","0"
"GENERATED VIA SPACETRACK.ORG API","18 SPCS","55099","SPACEBEE-156","PAYLOAD","U","23001CU","2024-03-04 03:21:58","272192","15.35554851","0.0011543","97.4356","128.9093","161.0944","199.073","0","999","6491","0.0025718","0.00089916","0","4207192","0 SPACEBEE-156","1 55099U 23001CU  24064.14025778  .00089916  00000-0  25718-2 0  9992","2 55099  97.4356 128.9093 0011543 161.0944 199.0730 15.35554851 64916","2023-001CU","55099","6837.410","93.777","467.167","451.383","0"
"GENERATED VIA SPACETRACK.ORG API","18 SPCS","55099","SPACEBEE-156","PAYLOAD","U","23001CU","2024-03-04 03:21:58","272192","15.35554851","0.0011543","97.4356","128.9093","161.0944","199.073","0","999","6491","0.0025718","0.00089916","0","4208022","0 SPACEBEE-156","1 55099U 23001CU  24064.14025778  .00089916  00000-0  25718-2 0  9992","2 55099  97.4356 128.9093 0011543 161.0944 199.0730 15.35554851 64916","2023-001CU","55099","6837.410","93.777","467.167","451.383","0"
"GENERATED VIA SPACETRACK.ORG API","18 SPCS","55099","SPACEBEE-156","PAYLOAD","U","23001CU","2024-03-04 17:26:30","856992","15.35580938","0.0011414","97.4364","129.5015","159.3255","200.8453","0","999","6500","0.0011407","0.00039609","0","4208577","0 SPACEBEE-156","1 55099U 23001CU  24064.72674603  .00039609  00000-0  11407-2 0  9997","2 55099  97.4364 129.5015 0011414 159.3255 200.8453 15.35580938 65007","2023-001CU","55099","6837.332","93.776","467.002","451.393","0"
"GENERATED VIA SPACETRACK.ORG API","18 SPCS","55099","SPACEBEE-156","PAYLOAD","U","23001CU","2024-03-04 22:08:01","137696","15.35604371","0.0011491","97.4363","129.6987","158.7093","201.4631","0","999","6503","0.0012025","0.00041803","0","4208633","0 SPACEBEE-156","1 55099U 23001CU  24064.92223539  .00041803  00000-0  12025-2 0  9993","2 55099  97.4363 129.6987 0011491 158.7093 201.4631 15.35604371 65039","2023-001CU","55099","6837.263","93.774","466.985","451.271","0"
"GENERATED VIA SPACETRACK.ORG API","18 SPCS","55099","SPACEBEE-156","PAYLOAD","U","23001CU","2024-03-05 02:49:31","255104","15.35623136","0.0011468","97.4363","129.8964","158.2643","201.909","0","999","6506","0.0011275","0.00039201","0","4209183","0 SPACEBEE-156","1 55099U 23001CU  24065.11772286  .00039201  00000-0  11275-2 0  9998","2 55099  97.4363 129.8964 0011468 158.2643 201.9090 15.35623136 65063","2023-001CU","55099","6837.207","93.773","466.913","451.231","0"
"GENERATED VIA SPACETRACK.ORG API","18 SPCS","55099","SPACEBEE-156","PAYLOAD","U","23001CU","2024-03-05 16:54:00","340704","15.35682422","0.0011533","97.4361","130.4881","156.1332","204.0449","0","999","6515","0.0011889","0.00041431","0","4210312","0 SPACEBEE-156","1 55099U 23001CU  24065.70417061  .00041431  00000-0  11889-2 0  9999","2 55099  97.4361 130.4881 0011533 156.1332 204.0449 15.35682422 65157","2023-001CU","55099","6837.031","93.769","466.781","451.011","0"
"GENERATED VIA SPACETRACK.ORG API","18 SPCS","55099","SPACEBEE-156","PAYLOAD","U","23001CU","2024-03-06 03:50:48","402816","15.35729088","0.0011595","97.436","130.9483","154.9581","205.2227","0","999","6522","0.0012629","0.00044097","0","4211361","0 SPACEBEE-156","1 55099U 23001CU  24066.16028244  .00044097  00000-0  12629-2 0  9995","2 55099  97.4360 130.9483 0011595 154.9581 205.2227 15.35729088 65224","2023-001CU","55099","6836.893","93.767","466.685","450.830","0"
"GENERATED VIA SPACETRACK.ORG API","18 SPCS","55099","SPACEBEE-156","PAYLOAD","U","23001CU","2024-03-06 17:55:14","335680","15.35782509","0.0011522","97.4359","131.5407","153.204","206.9801","0","999","6531","0.0013577","0.00047514","0","4211882","0 SPACEBEE-156","1 55099U 23001CU  24066.74669370  .00047514  00000-0  13577-2 0  9990","2 55099  97.4359 131.5407 0011522 153.2040 206.9801 15.35782509 65310","2023-001CU","55099","6836.734","93.763","466.477","450.722","0"
"GENERATED VIA SPACETRACK.ORG API","18 SPCS","55099","SPACEBEE-156","PAYLOAD","U","23001CU","2024-03-07 03:18:10","741248","15.35811347","0.0011554","97.4359","131.9354","151.7923","208.3949","0","999","6537","0.0011757","0.00041138","0","4212721","0 SPACEBEE-156","1 55099U 23001CU  24067.13762432  .00041138  00000-0  11757-2 0  9991","2 55099  97.4359 131.9354 0011554 151.7923 208.3949 15.35811347 65371","2023-001CU","55099","6836.649","93.762","466.413","450.615","0"
"GENERATED VIA SPACETRACK.ORG API","18 SPCS","55099","SPACEBEE-156","PAYLOAD","U","23001CU","2024-03-08 02:45:28","448640","15.35899937","0.0011468","97.4359","132.9224","148.5858","211.6073","0","999","6552","0.0013052","0.00045834","0","4213599","0 SPACEBEE-156","1 55099U 23001CU  24068.11491260  .00045834  00000-0  13052-2 0  9995","2 55099  97.4359 132.9224 0011468 148.5858 211.6073 15.35899937 65526","2023-001CU","55099","6836.386","93.756","466.091","450.411","0"
"GENERATED VIA SPACETRACK.ORG API","18 SPCS","55099","SPACEBEE-156","PAYLOAD","U","23001CU","2024-03-08 10:34:33","235680","15.35930494","0.0011565","97.436","133.251","147.4649","212.731","0","999","6557","0.0013145","0.00046211","0","4214683","0 SPACEBEE-156","1 55099U 23001CU  24068.44066245  .00046211  00000-0  13145-2 0  9995","2 55099  97.4360 133.2510 0011565 147.4649 212.7310 15.35930494 65579","2023-001CU","55099","6836.295","93.754","466.066","450.254","0"
